[{"OBJECT_NAME":"STARLINK-30132","OBJECT_ID":"2023-067R","EPOCH":"2026-03-09T22:00:01.999584","MEAN_MOTION":15.21209439,"ECCENTRICITY":0.00015319,"INCLINATION":42.9992,"RA_OF_ASC_NODE":272.3711,"ARG_OF_PERICENTER":290.3973,"MEAN_ANOMALY":90.6394,"EPHEMERIS_TYPE":0,"CLASSIFICATION_TYPE":"U","NORAD_CAT_ID":56703,"ELEMENT_SET_NO":999,"REV_AT_EPOCH":573,"BSTAR":0.072253179,"MEAN_MOTION_DOT":0.01805399,"MEAN_MOTION_DDOT":0},{"OBJECT_NAME":"ANSER FOLLOWER 1","OBJECT_ID":"2023-155D","EPOCH":"2026-03-09T17:27:18.569664","MEAN_MOTION":15.38126463,"ECCENTRICITY":0.00013588,"INCLINATION":97.5602,"RA_OF_ASC_NODE":154.8565,"ARG_OF_PERICENTER":113.413,"MEAN_ANOMALY":246.7257,"EPHEMERIS_TYPE":0,"CLASSIFICATION_TYPE":"U","NORAD_CAT_ID":58019,"ELEMENT_SET_NO":999,"REV_AT_EPOCH":13362,"BSTAR":0.00059271098,"MEAN_MOTION_DOT":0.000222,"MEAN_MOTION_DDOT":0}]
